NORAD_CAT_ID,OBJECT_NAME,OBJECT_TYPE,EPOCH,MEAN_MOTION,ECCENTRICITY,INCLINATION,RA_OF_ASC_NODE,ARG_OF_PERICENTER,MEAN_ANOMALY,BSTAR,MEAN_MOTION_DOT,MEAN_MOTION_DDOT,TLE_LINE0,TLE_LINE1,TLE_LINE2,SEMIMAJOR_AXIS,PERIOD,APOGEE,PERIGEE,DECAYED
53968.0,STARLINK-4629,PAYLOAD,2023-08-31 11:47:42,15.08831093,0.0001015,53.218,39.4562,91.8722,268.2386,3.1551e-05,2.14e-06,0.0,0 STARLINK-4629,1 53968U 22125E   23243.49146897  .00000214  00000-0  31551-4 0  9991,2 53968  53.2180  39.4562 0001015  91.8722 268.2386 15.08831093 50320,6917.908,95.438,540.475,539.07,0.0
53968.0,STARLINK-4629,PAYLOAD,2023-09-01 10:03:06,15.08843329,0.0001377,53.2188,35.294,85.3944,274.7206,0.00012187,1.652e-05,0.0,0 STARLINK-4629,1 53968U 22125E   23244.41882254  .00001652  00000-0  12187-3 0  9998,2 53968  53.2188  35.2940 0001377  85.3944 274.7206 15.08843329 50460,6917.87,95.437,540.688,538.783,0.0
53968.0,STARLINK-4629,PAYLOAD,2023-09-01 16:24:38,15.0884464,9.47e-05,53.217,34.1043,83.2496,276.8604,0.00025107,3.711e-05,0.0,0 STARLINK-4629,1 53968U 22125E   23244.68378092  .00003711  00000-0  25107-3 0  9991,2 53968  53.2170  34.1043 0000947  83.2496 276.8604 15.08844640 50433,6917.866,95.437,540.386,539.076,0.0
53968.0,STARLINK-4629,PAYLOAD,2023-09-02 09:53:53,15.08838932,0.0001966,53.214,30.8324,85.6576,274.4641,0.00019095,2.752e-05,0.0,0 STARLINK-4629,1 53968U 22125E   23245.41242767  .00002752  00000-0  19095-3 0  9995,2 53968  53.2140  30.8324 0001966  85.6576 274.4641 15.08838932 50614,6917.884,95.438,541.109,538.389,0.0
53968.0,STARLINK-4629,PAYLOAD,2023-09-02 13:04:39,15.08839877,0.0001512,53.2163,30.238,86.8753,273.2412,0.00010886,1.445e-05,0.0,0 STARLINK-4629,1 53968U 22125E   23245.54490512  .00001445  00000-0  10886-3 0  9999,2 53968  53.2163  30.2380 0001512  86.8753 273.2412 15.08839877 50568,6917.881,95.438,540.792,538.7,0.0
53968.0,STARLINK-4629,PAYLOAD,2023-09-02 19:26:11,15.08851242,0.0001323,53.2174,29.0469,99.6311,260.4831,0.00026736,3.971e-05,0.0,0 STARLINK-4629,1 53968U 22125E   23245.80985960  .00003971  00000-0  26736-3 0  9991,2 53968  53.2174  29.0469 0001323  99.6311 260.4831 15.08851242 50604,6917.846,95.437,540.626,538.796,0.0
53968.0,STARLINK-4629,PAYLOAD,2023-09-03 09:44:40,15.08846965,0.0001375,53.2177,26.3697,101.6743,258.4403,0.00020159,2.922e-05,0.0,0 STARLINK-4629,1 53968U 22125E   23246.40602042  .00002922  00000-0  20159-3 0  9993,2 53968  53.2177  26.3697 0001375 101.6743 258.4403 15.08846965 50765,6917.859,95.437,540.675,538.773,0.0
53968.0,STARLINK-4629,PAYLOAD,2023-09-03 12:55:26,15.08849312,0.0001366,53.2178,25.7751,101.5309,258.5836,0.00023144,3.398e-05,0.0,0 STARLINK-4629,1 53968U 22125E   23246.53849902  .00003398  00000-0  23144-3 0  9990,2 53968  53.2178  25.7751 0001366 101.5309 258.5836 15.08849312 50712,6917.852,95.437,540.662,538.772,0.0
53968.0,STARLINK-4629,PAYLOAD,2023-09-03 20:52:21,15.08857179,0.0001385,53.2179,24.2879,101.3569,258.7579,0.00031691,4.762e-05,0.0,0 STARLINK-4629,1 53968U 22125E   23246.86969379  .00004762  00000-0  31691-3 0  9999,2 53968  53.2179  24.2879 0001385 101.3569 258.7579 15.08857179 50834,6917.828,95.436,540.651,538.735,0.0
53968.0,STARLINK-4629,PAYLOAD,2023-09-04 15:57:00,15.08832044,0.0001433,53.2186,20.7207,95.7766,264.3389,-7.9896e-05,-1.559e-05,0.0,0 STARLINK-4629,1 53968U 22125E   23247.66458575 -.00001559  00000-0 -79896-4 0  9992,2 53968  53.2186  20.7207 0001433  95.7766 264.3389 15.08832044 50956,6917.905,95.438,540.761,538.778,0.0
53968.0,STARLINK-4629,PAYLOAD,2023-09-05 09:26:14,15.08837638,0.0001308,53.218,17.451,94.4362,265.6779,6.3203e-05,7.18e-06,0.0,0 STARLINK-4629,1 53968U 22125E   23248.39322650  .00000718  00000-0  63203-4 0  9996,2 53968  53.2180  17.4510 0001308  94.4362 265.6779 15.08837638 50994,6917.888,95.438,540.657,538.848,0.0
53968.0,STARLINK-4629,PAYLOAD,2023-09-06 01:20:06,15.08837556,0.000137,53.2186,14.4774,95.5447,264.5702,0.00055582,8.568e-05,0.0,0 STARLINK-4629,1 53968U 22125E   23249.05563099  .00008568  00000-0  55582-3 0  9995,2 53968  53.2186  14.4774 0001370  95.5447 264.5702 15.08837556 51099,6917.888,95.438,540.701,538.805,0.0
53968.0,STARLINK-4629,PAYLOAD,2023-09-06 18:49:20,15.08846057,0.0001166,53.2181,11.206,90.4703,269.6423,0.00021481,3.133e-05,0.0,0 STARLINK-4629,1 53968U 22125E   23249.78426539  .00003133  00000-0  21481-3 0  9996,2 53968  53.2181  11.2060 0001166  90.4703 269.6423 15.08846057 51271,6917.862,95.437,540.533,538.92,0.0
53968.0,STARLINK-4629,PAYLOAD,2023-09-06 20:24:43,15.08846684,0.0001127,53.2172,10.9076,85.7709,274.3412,0.00021785,3.182e-05,0.0,0 STARLINK-4629,1 53968U 22125E   23249.85050485  .00003182  00000-0  21785-3 0  9998,2 53968  53.2172  10.9076 0001127  85.7709 274.3412 15.08846684 51215,6917.86,95.437,540.505,538.945,0.0
53968.0,STARLINK-4629,PAYLOAD,2023-09-07 09:07:49,15.08836885,9.51e-05,53.2184,8.5322,88.1242,271.9859,8.0996e-05,1.001e-05,0.0,0 STARLINK-4629,1 53968U 22125E   23250.38042972  .00001001  00000-0  80996-4 0  9998,2 53968  53.2184   8.5322 0000951  88.1242 271.9859 15.08836885 51364,6917.89,95.438,540.413,539.097,0.0
53968.0,STARLINK-4629,PAYLOAD,2023-09-08 01:01:40,15.08847433,0.0001248,53.2187,5.5579,85.6645,274.449,0.00016986,2.417e-05,0.0,0 STARLINK-4629,1 53968U 22125E   23251.04282558  .00002417  00000-0  16986-3 0  9997,2 53968  53.2187   5.5579 0001248  85.6645 274.4490 15.08847433 51468,6917.858,95.437,540.586,538.859,0.0
53968.0,STARLINK-4629,PAYLOAD,2023-09-08 13:44:45,15.08842718,0.0001562,53.2194,3.1787,79.4657,280.6511,1.6381e-05,-2.7e-07,0.0,0 STARLINK-4629,1 53968U 22125E   23251.57274831 -.00000027  00000-0  16381-4 0  9996,2 53968  53.2194   3.1787 0001562  79.4657 280.6511 15.08842718 51479,6917.872,95.437,540.818,538.657,0.0
53968.0,STARLINK-4629,PAYLOAD,2023-09-08 15:20:08,15.08848797,0.000124,53.2186,2.8807,87.3779,272.7355,4.7507e-05,4.68e-06,0.0,0 STARLINK-4629,1 53968U 22125E   23251.63898503  .00000468  00000-0  47507-4 0  9993,2 53968  53.2186   2.8807 0001240  87.3779 272.7355 15.08848797 51487,6917.854,95.437,540.576,538.861,0.0
53968.0,STARLINK-4629,PAYLOAD,2023-09-09 07:14:00,15.08825228,9.1e-05,53.2183,359.9089,61.3966,298.7118,-0.00012274,-2.24e-05,0.0,0 STARLINK-4629,1 53968U 22125E   23252.30139596 -.00002240  00000-0 -12274-3 0  9992,2 53968  53.2183 359.9089 0000910  61.3966 298.7118 15.08825228 51653,6917.926,95.438,540.42,539.161,0.0
53968.0,STARLINK-4629,PAYLOAD,2023-09-09 13:35:32,15.08840441,0.000142,53.2173,358.7174,92.0828,268.0327,0.00012885,1.763e-05,0.0,0 STARLINK-4629,1 53968U 22125E   23252.56635169  .00001763  00000-0  12885-3 0  9992,2 53968  53.2173 358.7174 0001420  92.0828 268.0327 15.08840441 51622,6917.879,95.438,540.726,538.762,0.0
53968.0,STARLINK-4629,PAYLOAD,2023-09-10 11:50:56,15.08848183,0.0001545,53.2188,354.5558,93.0105,267.1064,0.00030016,4.493e-05,0.0,0 STARLINK-4629,1 53968U 22125E   23253.49370993  .00004493  00000-0  30016-3 0  9995,2 53968  53.2188 354.5558 0001545  93.0105 267.1064 15.08848183 51769,6917.855,95.437,540.789,538.652,0.0
53968.0,STARLINK-4629,PAYLOAD,2023-09-11 10:06:20,15.08842138,0.0001492,53.2185,350.3929,91.2553,268.861,0.00010648,1.407e-05,0.0,0 STARLINK-4629,1 53968U 22125E   23254.42107193  .00001407  00000-0  10648-3 0  9990,2 53968  53.2185 350.3929 0001492  91.2553 268.8610 15.08842138 51972,6917.874,95.437,540.771,538.707,0.0
53968.0,STARLINK-4629,PAYLOAD,2023-09-11 13:17:06,15.08843393,0.0001439,53.2184,349.7998,83.5709,276.5447,0.0001229,1.669e-05,0.0,0 STARLINK-4629,1 53968U 22125E   23254.55355169  .00001669  00000-0  12290-3 0  9997,2 53968  53.2184 349.7998 0001439  83.5709 276.5447 15.08843393 51920,6917.87,95.437,540.73,538.74,0.0
53968.0,STARLINK-4629,PAYLOAD,2023-09-12 13:07:53,15.08852645,0.0001445,53.2184,345.3391,82.0374,278.0783,0.00022115,3.235e-05,0.0,0 STARLINK-4629,1 53968U 22125E   23255.54714496  .00003235  00000-0  22115-3 0  9997,2 53968  53.2184 345.3391 0001445  82.0374 278.0783 15.08852645 52075,6917.842,95.437,540.706,538.707,0.0
53968.0,STARLINK-4629,PAYLOAD,2023-09-12 22:40:12,15.08844555,0.0001545,53.2189,343.5541,91.4746,268.6423,0.00011214,1.497e-05,0.0,0 STARLINK-4629,1 53968U 22125E   23255.94458757  .00001497  00000-0  11214-3 0  9992,2 53968  53.2189 343.5541 0001545  91.4746 268.6423 15.08844555 52207,6917.866,95.437,540.8,538.663,0.0
53968.0,STARLINK-4629,PAYLOAD,2023-09-13 12:58:40,15.08849434,0.000146,53.2186,340.8785,94.3526,265.7633,0.00012694,1.733e-05,0.0,0 STARLINK-4629,1 53968U 22125E   23256.54074220  .00001733  00000-0  12694-3 0  9994,2 53968  53.2186 340.8785 0001460  94.3526 265.7633 15.08849434 52222,6917.852,95.437,540.727,538.707,0.0
53968.0,STARLINK-4629,PAYLOAD,2023-09-13 22:30:59,15.08840358,0.0001652,53.2185,339.0944,73.0584,287.0589,-1.4256e-07,-2.9e-06,0.0,0 STARLINK-4629,1 53968U 22125E   23256.93818728 -.00000290  00000-0 -14256-6 0  9994,2 53968  53.2185 339.0944 0001652  73.0584 287.0589 15.08840358 52356,6917.879,95.438,540.887,538.601,0.0
53968.0,STARLINK-4629,PAYLOAD,2023-09-14 09:38:42,15.08812119,0.0001523,53.2197,337.0132,84.5994,275.5172,-0.00039245,-6.524e-05,0.0,0 STARLINK-4629,1 53968U 22125E   23257.40188564 -.00006524  00000-0 -39245-3 0  9993,2 53968  53.2197 337.0132 0001523  84.5994 275.5172 15.08812119 52427,6917.966,95.439,540.884,538.777,0.0
53968.0,STARLINK-4629,PAYLOAD,2023-09-14 12:49:29,15.08812811,0.0001572,53.2187,336.4172,79.4597,280.6573,-0.00039348,-6.54e-05,0.0,0 STARLINK-4629,1 53968U 22125E   23257.53436750 -.00006540  00000-0 -39348-3 0  9992,2 53968  53.2187 336.4172 0001572  79.4597 280.6573 15.08812811 52374,6917.963,95.439,540.916,538.741,0.0
53968.0,STARLINK-4629,PAYLOAD,2023-09-14 22:21:48,15.08821959,0.0001567,53.2192,334.6334,76.559,283.5577,-0.00018497,-3.229e-05,0.0,0 STARLINK-4629,1 53968U 22125E   23257.93180811 -.00003229  00000-0 -18497-3 0  9993,2 53968  53.2192 334.6334 0001567  76.5590 283.5577 15.08821959 52509,6917.936,95.439,540.885,538.716,0.0
